[{"OBJECT_NAME":"STARLINK-1260","OBJECT_ID":"2020-019AW","EPOCH":"2026-03-09T10:28:29.871840","MEAN_MOTION":15.30197736,"ECCENTRICITY":0.00018207,"INCLINATION":53.1614,"RA_OF_ASC_NODE":130.4178,"ARG_OF_PERICENTER":93.3089,"MEAN_ANOMALY":266.812,"EPHEMERIS_TYPE":0,"CLASSIFICATION_TYPE":"U","NORAD_CAT_ID":45404,"ELEMENT_SET_NO":999,"REV_AT_EPOCH":32993,"BSTAR":0.00014152412,"MEAN_MOTION_DOT":3.834e-5,"MEAN_MOTION_DDOT":0},{"OBJECT_NAME":"OBJECT BE","OBJECT_ID":"2025-313BE","EPOCH":"2026-03-09T16:43:59.380320","MEAN_MOTION":15.29801687,"ECCENTRICITY":0.00072083,"INCLINATION":97.3989,"RA_OF_ASC_NODE":145.3568,"ARG_OF_PERICENTER":335.3714,"MEAN_ANOMALY":24.7181,"EPHEMERIS_TYPE":0,"CLASSIFICATION_TYPE":"U","NORAD_CAT_ID":67482,"ELEMENT_SET_NO":999,"REV_AT_EPOCH":797,"BSTAR":0.0026504328,"MEAN_MOTION_DOT":0.00077178,"MEAN_MOTION_DDOT":0}]
